0 INTELSAT 2-F1
1 02514U 66096A   13279.83915856  .00000118  00000-0  96646-1 0  4296
2 02514 017.3301 212.6083 6368603 006.6768 070.1722 02.00426451220665
0 INTELSAT 2-F1
1 02514U 66096A   13282.02322478  .00000123  00000-0  67905-1 0  4307
2 02514 017.3239 212.1957 6369236 007.4413 206.0409 02.00427594220705
0 INTELSAT 2-F1
1 02514U 66096A   13285.72696859  .00000051  00000-0  62881-1 0  4313
2 02514 017.3166 211.5038 6371244 008.7197 358.4325 02.00430060220781
0 INTELSAT 2-F1
1 02514U 66096A   13286.01460683  .00000053  00000-0  15777+0 0  4323
2 02514 017.3122 211.4397 6370351 008.8384 205.9664 02.00429389220781
0 INTELSAT 2-F1
1 02514U 66096A   13290.41283219  .00000007  00000-0 -17713-1 0  4335
2 02514 017.2998 210.6068 6371424 010.3755 139.4790 02.00431905220877
0 INTELSAT 2-F1
1 02514U 66096A   13293.43330075  .00000007  00000-0 -53796+0 0  4343
2 02514 017.2911 210.0341 6372108 011.4329 158.8962 02.00434143220939
